ONEWEB-0156             
1 48052U 21025L   24089.80751591 -.00000279  00000+0 -79921-3 0  9998
2 48052  87.8910 121.3392 0002057  94.8939 265.2425 13.13469817147327
ONEWEB-0161             
1 48053U 21025M   24089.78053475  .00000180  00000+0  45726-3 0  9997
2 48053  87.8913 121.3499 0001989 101.2508 258.8845 13.13470374147253
ONEWEB-0158             
1 48054U 21025N   24089.81861951 -.00000124  00000+0 -37422-3 0  9992
2 48054  87.8908 121.3349 0002014  90.3837 269.7523 13.13471294147385
ONEWEB-0157             
1 48055U 21025P   24089.84242885  .00000354  00000+0  93554-3 0  9996
2 48055  87.8908 121.3464 0002206  98.3914 261.7466 13.13470933147322
ONEWEB-0162             
1 48056U 21025Q   24089.50120989 -.00000339  00000+0 -96461-3 0  9995
2 48056  87.8907 121.4109 0002071  94.2316 265.9049 13.13470640147250
ONEWEB-0155             
1 48057U 21025R   24089.82656052  .00000076  00000+0  17291-3 0  9996
2 48057  87.8906 121.3555 0001956  95.4915 264.6437 13.13470707147434
ONEWEB-0149             
1 48058U 21025S   24089.84718657  .00000415  00000+0  11014-2 0  9992
2 48058  87.8907 121.3484 0002236  92.9457 267.1928 13.13468511147244
ONEWEB-0148             
1 48059U 21025T   24089.81227814 -.00000203  00000+0 -59141-3 0  9991
2 48059  87.8911 121.3621 0002677  97.8970 262.2463 13.13470093147367
